{
"type": "FeatureCollection",
"name": "Oujda_municipality",
"crs": { "type": "name", "properties": { "name": "urn:ogc:def:crs:OGC:1.3:CRS84" } },
"features": [
{ "type": "Feature", "properties": { "id": "relation/2527998", "@id": "relation/2527998", "@relations": null, "admin_level": "8", "alt_name:es": "Uxda", "boundary": "administrative", "name": "Oujda وجدة", "name:ar": "وجدة", "name:az-Arab": "وجده", "name:azb": "وجده", "name:en": "Oujda", "name:es": "Uchda", "name:fa": "وجده", "name:fr": "Oujda", "name:pl": "Wadżda", "name:ur": "وجدہ", "network": "MA:communes", "population": "494252", "population:date": "2014", "ref:MA:HCP": "02.411.01.23.", "type": "boundary", "wikidata": "Q193802", "wikipedia": "ar:وجدة" }, "geometry": { "type": "Polygon", "coordinates": [ [ [ -1.866242, 34.6480755 ], [ -1.8635351, 34.6498074 ], [ -1.8631918, 34.6529847 ], [ -1.8564112, 34.654538 ], [ -1.8550379, 34.6587036 ], [ -1.8516713, 34.6781153 ], [ -1.8531926, 34.6793011 ], [ -1.8587384, 34.6791485 ], [ -1.8566901, 34.6895467 ], [ -1.8561714, 34.702992 ], [ -1.8561537, 34.7034521 ], [ -1.86287, 34.7145261 ], [ -1.8659599, 34.7228509 ], [ -1.8683631, 34.727789 ], [ -1.8704231, 34.73315 ], [ -1.8827612, 34.7323776 ], [ -1.8976314, 34.7381579 ], [ -1.9073946, 34.7408417 ], [ -1.9192607, 34.7423192 ], [ -1.9327361, 34.744153 ], [ -1.9397743, 34.7435182 ], [ -1.94825, 34.7367508 ], [ -1.9529063, 34.7191119 ], [ -1.9571508, 34.705649 ], [ -1.9661469, 34.6914149 ], [ -1.9644077, 34.6817126 ], [ -1.9659526, 34.6637831 ], [ -1.9655107, 34.6523473 ], [ -1.9594446, 34.647802 ], [ -1.9506459, 34.6428918 ], [ -1.9388838, 34.64544 ], [ -1.9103129, 34.6439468 ], [ -1.8900568, 34.6415459 ], [ -1.8748862, 34.6435902 ], [ -1.8697766, 34.6443683 ], [ -1.8646828, 34.6450068 ], [ -1.866242, 34.6480755 ] ] ] } }
]
}
